NORAD_CAT_ID,OBJECT_NAME,OBJECT_TYPE,EPOCH,MEAN_MOTION,ECCENTRICITY,INCLINATION,RA_OF_ASC_NODE,ARG_OF_PERICENTER,MEAN_ANOMALY,BSTAR,MEAN_MOTION_DOT,MEAN_MOTION_DDOT,TLE_LINE0,TLE_LINE1,TLE_LINE2,SEMIMAJOR_AXIS,PERIOD,APOGEE,PERIGEE,DECAYED
52852.0,STARLINK-4184,PAYLOAD,2023-01-13 12:35:02,15.08816765,0.0002239,53.2158,151.904,64.6121,295.5102,-0.0002591,-4.407e-05,0.0,0 STARLINK-4184,1 52852U 22062Y   23013.52433902 -.00004407  00000-0 -25910-3 0  9998,2 52852  53.2158 151.9040 0002239  64.6121 295.5102 15.08816765 32628,6917.951,95.439,541.365,538.2669999999999,0.0
52852.0,STARLINK-4184,PAYLOAD,2023-01-13 15:45:49,15.08821281,0.0002272,53.217,151.3096,64.8234,295.2994,-9.5191e-05,-1.802e-05,0.0,0 STARLINK-4184,1 52852U 22062Y   23013.65682448 -.00001802  00000-0 -95191-4 0  9998,2 52852  53.2170 151.3096 0002272  64.8234 295.2994 15.08821281 32154,6917.938,95.439,541.374,538.231,0.0
52852.0,STARLINK-4184,PAYLOAD,2023-01-14 15:36:35,15.08849387,0.000217,53.2163,146.85,61.8112,298.3099,0.00032704,4.922e-05,0.0,0 STARLINK-4184,1 52852U 22062Y   23014.65041132  .00004922  00000-0  32704-3 0  9992,2 52852  53.2163 146.8500 0002170  61.8112 298.3099 15.08849387 32791,6917.852,95.437,541.2180000000001,538.216,0.0
52852.0,STARLINK-4184,PAYLOAD,2023-01-15 01:08:55,15.08842286,0.0002738,53.2158,145.0632,72.6181,287.511,0.00024724,3.649e-05,0.0,0 STARLINK-4184,1 52852U 22062Y   23015.04786261  .00003649  00000-0  24724-3 0  9993,2 52852  53.2158 145.0632 0002738  72.6181 287.5110 15.08842286 32850,6917.8730000000005,95.437,541.633,537.844,0.0
52852.0,STARLINK-4184,PAYLOAD,2023-01-15 13:52:00,15.08850892,0.0001948,53.216,142.6865,73.3955,286.725,0.00066488,0.00010313,0.0,0 STARLINK-4184,1 52852U 22062Y   23015.57778014  .00010313  00000-0  66488-3 0  9997,2 52852  53.2160 142.6865 0001948  73.3955 286.7250 15.08850892 32446,6917.847,95.437,541.06,538.365,0.0
52852.0,STARLINK-4184,PAYLOAD,2023-01-15 15:27:23,15.08846935,0.0001837,53.2164,142.3916,73.9791,286.1404,0.0014059,0.00022162,0.0,0 STARLINK-4184,1 52852U 22062Y   23015.64402130  .00022162  00000-0  14059-2 0  9999,2 52852  53.2164 142.3916 0001837  73.9791 286.1404 15.08846935 32454,6917.859,95.437,540.995,538.453,0.0
52852.0,STARLINK-4184,PAYLOAD,2023-01-16 13:42:47,15.0886036,0.0001571,53.2155,138.2267,82.9721,277.145,0.0015572,0.00024596,0.0,0 STARLINK-4184,1 52852U 22062Y   23016.57138151  .00024596  00000-0  15572-2 0  9995,2 52852  53.2155 138.2267 0001571  82.9721 277.1450 15.08860360 33084,6917.818,95.436,540.77,538.596,0.0
52852.0,STARLINK-4184,PAYLOAD,2023-01-16 18:28:56,15.08872009,0.0001606,53.2158,137.3345,79.4316,280.6857,0.0019256,0.00030518,0.0,0 STARLINK-4184,1 52852U 22062Y   23016.77009807  .00030518  00000-0  19256-2 0  9996,2 52852  53.2158 137.3345 0001606  79.4316 280.6857 15.08872009 32626,6917.783,95.436,540.759,538.5369999999999,0.0
52852.0,STARLINK-4184,PAYLOAD,2023-01-17 00:50:29,15.08828981,0.0001865,53.2144,136.1429,82.1631,277.9572,-9.9856e-05,-1.877e-05,0.0,0 STARLINK-4184,1 52852U 22062Y   23017.03506442 -.00001877  00000-0 -99856-4 0  9997,2 52852  53.2144 136.1429 0001865  82.1631 277.9572 15.08828981 33151,6917.914000000001,95.438,541.069,538.489,0.0
52852.0,STARLINK-4184,PAYLOAD,2023-01-17 08:47:25,15.08816467,0.0001709,53.2162,134.6591,93.6423,266.4764,0.0011140999999999,0.00017476,0.0,0 STARLINK-4184,1 52852U 22062Y   23017.36627108  .00017476  00000-0  11141-2 0  9995,2 52852  53.2162 134.6591 0001709  93.6423 266.4764 15.08816467 32710,6917.951999999999,95.439,541.0,538.635,0.0
52852.0,STARLINK-4184,PAYLOAD,2023-01-18 08:38:13,15.08859077,0.000179,53.2183,130.2,90.7976,269.3222,0.0014989,0.0002366,0.0,0 STARLINK-4184,1 52852U 22062Y   23018.35987311  .00023660  00000-0  14989-2 0  9995,2 52852  53.2183 130.2000 0001790  90.7976 269.3222 15.08859077 33357,6917.821999999999,95.436,540.925,538.4490000000001,0.0
52852.0,STARLINK-4184,PAYLOAD,2023-01-18 13:24:22,15.08874146,0.0001664,53.217,129.3065,91.6829,268.4354,0.0017861,0.00028279,0.0,0 STARLINK-4184,1 52852U 22062Y   23018.55858896  .00028279  00000-0  17861-2 0  9995,2 52852  53.2170 129.3065 0001664  91.6829 268.4354 15.08874146 32898,6917.776,95.435,540.7919999999999,538.49,0.0
52852.0,STARLINK-4184,PAYLOAD,2023-01-18 14:59:45,15.08875029,0.0001737,53.2176,129.0106,89.6127,270.5064,0.0016696999999999,0.00026411,0.0,0 STARLINK-4184,1 52852U 22062Y   23018.62482784  .00026411  00000-0  16697-2 0  9994,2 52852  53.2176 129.0106 0001737  89.6127 270.5064 15.08875029 32901,6917.773,95.435,540.84,538.437,0.0
52852.0,STARLINK-4184,PAYLOAD,2023-01-19 00:32:04,15.088546,0.0002068,53.2167,127.224,75.2982,284.8239,0.00093483,0.00014627,0.0,0 STARLINK-4184,1 52852U 22062Y   23019.02227095  .00014627  00000-0  93483-3 0  9996,2 52852  53.2167 127.2240 0002068  75.2982 284.8239 15.08854600 33453,6917.835999999999,95.437,541.131,538.27,0.0
52852.0,STARLINK-4184,PAYLOAD,2023-01-19 06:53:36,15.08827374,0.0001686999999999,53.2152,126.0364,69.8872,290.2301,5.4191e-05,5.74e-06,0.0,0 STARLINK-4184,1 52852U 22062Y   23019.28723367  .00000574  00000-0  54191-4 0  9997,2 52852  53.2152 126.0364 0001687  69.8872 290.2301 15.08827374 33497,6917.919,95.438,540.951,538.617,0.0
52852.0,STARLINK-4184,PAYLOAD,2023-01-19 13:15:09,15.08836573,0.0001928,53.2167,124.8467,68.4472,291.6725,0.0017046,0.00026943,0.0,0 STARLINK-4184,1 52852U 22062Y   23019.55219644  .00026943  00000-0  17046-2 0  9999,2 52852  53.2167 124.8467 0001928  68.4472 291.6725 15.08836573 33533,6917.891,95.438,541.09,538.422,0.0
52852.0,STARLINK-4184,PAYLOAD,2023-01-20 11:30:33,15.08872153,0.0001904,53.2171,120.6843,67.681,292.4384,0.001468,0.00023173,0.0,0 STARLINK-4184,1 52852U 22062Y   23020.47954864  .00023173  00000-0  14680-2 0  9995,2 52852  53.2171 120.6843 0001904  67.6810 292.4384 15.08872153 33670,6917.781999999999,95.436,540.964,538.33,0.0
52852.0,STARLINK-4184,PAYLOAD,2023-01-21 06:35:10,15.08836907,9.34e-05,53.2175,117.1164,47.3293,312.7778,0.00075795,0.00011794,0.0,0 STARLINK-4184,1 52852U 22062Y   23021.27442831  .00011794  00000-0  75795-3 0  9991,2 52852  53.2175 117.1164 0000934  47.3293 312.7778 15.08836907 33796,6917.89,95.438,540.401,539.109,0.0
52852.0,STARLINK-4184,PAYLOAD,2023-01-21 12:56:43,15.08845283,0.0001264999999999,53.2175,115.9257,88.4323,271.6814,0.0017094999999999,0.00027027,0.0,0 STARLINK-4184,1 52852U 22062Y   23021.53938800  .00027027  00000-0  17095-2 0  9990,2 52852  53.2175 115.9257 0001265  88.4323 271.6814 15.08845283 33839,6917.8640000000005,95.437,540.604,538.854,0.0
52852.0,STARLINK-4184,PAYLOAD,2023-01-22 06:25:57,15.08855807,0.0001268,53.218,112.6542,106.8757,253.2374,0.0016478999999999,0.00026047,0.0,0 STARLINK-4184,1 52852U 22062Y   23022.26802964  .00026047  00000-0  16479-2 0  9998,2 52852  53.2180 112.6542 0001268 106.8757 253.2374 15.08855807 33947,6917.831999999999,95.437,540.5740000000001,538.82,0.0
52852.0,STARLINK-4184,PAYLOAD,2023-01-22 12:47:30,15.08859898,0.0001259,53.2174,111.4662,95.8156,264.298,0.0012842,0.0002021999999999,0.0,0 STARLINK-4184,1 52852U 22062Y   23022.53298692  .00020220  00000-0  12842-2 0  9992,2 52852  53.2174 111.4662 0001259  95.8156 264.2980 15.08859898 33983,6917.82,95.436,540.556,538.814,0.0
52852.0,STARLINK-4184,PAYLOAD,2023-01-23 06:16:44,15.08845995,0.0001601,53.2191,108.1989,102.0087,258.1085,0.00052761,8.120000000000001e-05,0.0,0 STARLINK-4184,1 52852U 22062Y   23023.26162964  .00008120  00000-0  52761-3 0  9995,2 52852  53.2191 108.1989 0001601 102.0087 258.1085 15.08845995 34096,6917.861999999999,95.437,540.835,538.62,0.0
52852.0,STARLINK-4184,PAYLOAD,2023-01-23 12:38:17,15.08837922,0.0001699999999999,53.2186,107.0063,110.8941,249.2233,0.0001636,2.316e-05,0.0,0 STARLINK-4184,1 52852U 22062Y   23023.52659158  .00002316  00000-0  16360-3 0  9996,2 52852  53.2186 107.0063 0001700 110.8941 249.2233 15.08837922 34139,6917.887,95.438,540.928,538.576,0.0
52852.0,STARLINK-4184,PAYLOAD,2023-01-25 04:22:56,15.08832235,0.0001376999999999,53.2176,99.5716,118.3485,241.7646,0.00013073,1.793e-05,0.0,0 STARLINK-4184,1 52852U 22062Y   23025.18259991  .00001793  00000-0  13073-3 0  9997,2 52852  53.2176  99.5716 0001377 118.3485 241.7646 15.08832235 34388,6917.904,95.438,540.722,538.817,0.0
52852.0,STARLINK-4184,PAYLOAD,2023-01-25 12:19:52,15.08826615,0.0001125,53.2163,98.0824,116.3827,243.7281,0.00032588,4.9e-05,0.0,0 STARLINK-4184,1 52852U 22062Y   23025.51380500  .00004900  00000-0  32588-3 0  9990,2 52852  53.2163  98.0824 0001125 116.3827 243.7281 15.08826615 33940,6917.920999999999,95.438,540.565,539.008,0.0
52852.0,STARLINK-4184,PAYLOAD,2023-01-26 12:10:39,15.08865081,0.000112,53.2162,93.6237,106.2363,253.8753,0.0012759,0.0002008999999999,0.0,0 STARLINK-4184,1 52852U 22062Y   23026.50740251  .00020090  00000-0  12759-2 0  9998,2 52852  53.2162  93.6237 0001120 106.2363 253.8753 15.08865081 34099,6917.804,95.436,540.444,538.894,0.0
52852.0,STARLINK-4184,PAYLOAD,2023-01-26 21:42:58,15.08863675,0.0001401,53.2163,91.8398,80.2984,279.8166,0.00076855,0.00011973,0.0,0 STARLINK-4184,1 52852U 22062Y   23026.90484090  .00011973  00000-0  76855-3 0  9996,2 52852  53.2163  91.8398 0001401  80.2984 279.8166 15.08863675 34644,6917.808000000001,95.436,540.6419999999999,538.7040000000001,0.0
52852.0,STARLINK-4184,PAYLOAD,2023-01-27 08:50:39,15.08854043,0.0001341999999999,53.2167,89.7578,94.4461,265.6685,0.00022471,3.291e-05,0.0,0 STARLINK-4184,1 52852U 22062Y   23027.36851757  .00003291  00000-0  22471-3 0  9994,2 52852  53.2167  89.7578 0001342  94.4461 265.6685 15.08854043 34711,6917.837,95.437,540.631,538.774,0.0
52852.0,STARLINK-4184,PAYLOAD,2023-01-28 03:55:17,15.08844597,0.0001255,53.2164,86.1905,87.3479,272.7657,-9.0642e-06,-4.32e-06,0.0,0 STARLINK-4184,1 52852U 22062Y   23028.16339765 -.00000432  00000-0 -90642-5 0  9996,2 52852  53.2164  86.1905 0001255  87.3479 272.7657 15.08844597 34830,6917.866,95.437,540.6,538.863,0.0
